{
  "norad_id": 40141,
  "name": "ASIASAT 6",
  "history": [
    {
      "epoch": "2026-03-27T13:41:09.213792Z",
      "apogee_km": 35791.80360591926,
      "perigee_km": 35783.64029562639,
      "latitude_deg": -0.03518120690028378,
      "longitude_deg": 119.8889439075778,
      "height_km": 35789.64928644863,
      "semi_major_axis_km": 42165.85895077283,
      "eccentricity": 9.68e-05,
      "inclination_deg": 0.0325,
      "raan_deg": 262.1957,
      "arg_perigee_deg": 121.7203,
      "mean_anomaly_deg": 126.2328,
      "mean_motion_rev_day": 1.00267765
    }
  ]
}